NORAD_CAT_ID,OBJECT_NAME,OBJECT_TYPE,EPOCH,MEAN_MOTION,ECCENTRICITY,INCLINATION,RA_OF_ASC_NODE,ARG_OF_PERICENTER,MEAN_ANOMALY,BSTAR,MEAN_MOTION_DOT,MEAN_MOTION_DDOT,TLE_LINE0,TLE_LINE1,TLE_LINE2,SEMIMAJOR_AXIS,PERIOD,APOGEE,PERIGEE,DECAYED
49758.0,STARLINK-3194,PAYLOAD,2024-04-12 04:19:19,15.08847903,0.0001443,53.2194,25.8715,86.8889,273.2268,7.4383e-05,8.96e-06,0.0,0 STARLINK-3194,1 49758U 21115AL  24103.18008796  .00000896  00000-0  74383-4 0  9994,2 49758  53.2194  25.8715 0001443  86.8889 273.2268 15.08847903130522,6917.856,95.437,540.719,538.723,0.0
49758.0,STARLINK-3194,PAYLOAD,2024-04-13 04:10:06,15.08846184,0.0001772,53.2199,21.4123,87.4261,272.6934,1.8296e-05,3e-08,0.0,0 STARLINK-3194,1 49758U 21115AL  24104.17369027  .00000003  00000-0  18296-4 0  9992,2 49758  53.2199  21.4123 0001772  87.4261 272.6934 15.08846184131780,6917.861,95.437,540.952,538.501,0.0
49758.0,STARLINK-3194,PAYLOAD,2024-04-13 21:39:21,15.08836924,0.0001647,53.2188,18.1392,113.092,247.0246,-3.8294e-05,-8.97e-06,0.0,0 STARLINK-3194,1 49758U 21115AL  24104.90233552 -.00000897  00000-0 -38294-4 0  9999,2 49758  53.2188  18.1392 0001647 113.0920 247.0246 15.08836924131893,6917.89,95.438,540.894,538.615,0.0
49758.0,STARLINK-3194,PAYLOAD,2024-04-14 21:30:08,15.0884237,0.0001612,53.2205,13.6807,103.7727,256.3445,-8.0172e-06,-4.16e-06,0.0,0 STARLINK-3194,1 49758U 21115AL  24105.89593418 -.00000416  00000-0 -80172-5 0  9998,2 49758  53.2205  13.6807 0001612 103.7727 256.3445 15.08842370130937,6917.873,95.437,540.853,538.623,0.0
49758.0,STARLINK-3194,PAYLOAD,2024-04-15 03:51:40,15.08851025,0.0001703,53.2208,12.4894,120.1691,239.947,1.2607e-05,-8.7e-07,0.0,0 STARLINK-3194,1 49758U 21115AL  24106.16088660 -.00000087  00000-0  12607-4 0  9997,2 49758  53.2208  12.4894 0001703 120.1691 239.9470 15.08851025132087,6917.847,95.437,540.89,538.534,0.0
49758.0,STARLINK-3194,PAYLOAD,2024-04-15 21:20:55,15.08838961,0.0001404,53.2193,9.2155,93.7535,266.3618,5.212e-05,5.42e-06,0.0,0 STARLINK-3194,1 49758U 21115AL  24106.88953566  .00000542  00000-0  52120-4 0  9991,2 49758  53.2193   9.2155 0001404  93.7535 266.3618 15.08838961132198,6917.884,95.438,540.72,538.777,0.0
49758.0,STARLINK-3194,PAYLOAD,2024-04-16 00:31:41,15.08847346,0.0001691,53.2203,8.6281,112.2608,247.8564,0.00012956,1.775e-05,0.0,0 STARLINK-3194,1 49758U 21115AL  24107.02200822  .00001775  00000-0  12956-3 0  9999,2 49758  53.2203   8.6281 0001691 112.2608 247.8564 15.08847346132213,6917.858,95.437,540.893,538.553,0.0
49758.0,STARLINK-3194,PAYLOAD,2024-04-16 10:04:00,15.08848099,0.0001502,53.2199,6.8448,107.8412,252.2744,0.00011371,1.523e-05,0.0,0 STARLINK-3194,1 49758U 21115AL  24107.41944698  .00001523  00000-0  11371-3 0  9999,2 49758  53.2199   6.8448 0001502 107.8412 252.2744 15.08848099131165,6917.856,95.437,540.76,538.682,0.0
49758.0,STARLINK-3194,PAYLOAD,2024-04-16 21:11:42,15.08849316,0.000151,53.2201,4.7639,111.2953,248.82,-3.687e-05,-8.75e-06,0.0,0 STARLINK-3194,1 49758U 21115AL  24107.88313050 -.00000875  00000-0 -36870-4 0  9995,2 49758  53.2201   4.7639 0001510 111.2953 248.8200 15.08849316132348,6917.852,95.437,540.762,538.672,0.0
49758.0,STARLINK-3194,PAYLOAD,2024-04-16 22:47:05,15.08851127,0.0001615,53.22,4.4661,99.5646,260.5529,-1.6585e-05,-5.52e-06,0.0,0 STARLINK-3194,1 49758U 21115AL  24107.94936915 -.00000552  00000-0 -16585-4 0  9996,2 49758  53.2200   4.4661 0001615  99.5646 260.5529 15.08851127131248,6917.846,95.437,540.829,538.594,0.0
49758.0,STARLINK-3194,PAYLOAD,2024-04-17 21:02:31,15.08825182,0.0001554,53.2194,0.3024,103.2509,256.8656,-4.2734e-05,-9.68e-06,0.0,0 STARLINK-3194,1 49758U 21115AL  24108.87675090 -.00000968  00000-0 -42734-4 0  9999,2 49758  53.2194   0.3024 0001554 103.2509 256.8656 15.08825182131387,6917.926,95.438,540.866,538.716,0.0
49758.0,STARLINK-3194,PAYLOAD,2024-04-18 01:48:40,15.08827439,0.0001447,53.2188,359.4115,94.6509,265.4649,-0.00012792,-2.322e-05,0.0,0 STARLINK-3194,1 49758U 21115AL  24109.07547403 -.00002322  00000-0 -12792-3 0  9994,2 49758  53.2188 359.4115 0001447  94.6509 265.4649 15.08827439132525,6917.919,95.438,540.785,538.783,0.0
49758.0,STARLINK-3194,PAYLOAD,2024-04-18 20:53:17,15.08844183,0.0002821,53.2182,355.8409,22.6723,337.4393,0.00013194,1.812e-05,0.0,0 STARLINK-3194,1 49758U 21115AL  24109.87033785  .00001812  00000-0  13194-3 0  9993,2 49758  53.2182 355.8409 0002821  22.6723 337.4393 15.08844183132645,6917.868,95.437,541.684,537.781,0.0
49758.0,STARLINK-3194,PAYLOAD,2024-04-18 22:28:37,15.08879231,0.0001457,53.2189,355.546,100.9877,259.1279,0.00023359,3.435e-05,0.0,0 STARLINK-3194,1 49758U 21115AL  24109.93654791  .00003435  00000-0  23359-3 0  9993,2 49758  53.2189 355.5460 0001457 100.9877 259.1279 15.08879231131543,6917.76,95.435,540.633,538.618,0.0
49758.0,STARLINK-3194,PAYLOAD,2024-04-19 00:04:00,15.08881164,0.0001408,53.2189,355.2506,90.3505,269.7649,0.00024152,3.562e-05,0.0,0 STARLINK-3194,1 49758U 21115AL  24110.00278596  .00003562  00000-0  24152-3 0  9991,2 49758  53.2189 355.2506 0001408  90.3505 269.7649 15.08881164132667,6917.755,95.435,540.594,538.646,0.0
49758.0,STARLINK-3194,PAYLOAD,2024-04-19 20:44:03,15.08842261,0.0001488,53.2196,351.3822,98.2187,261.8974,0.00024618,3.632e-05,0.0,0 STARLINK-3194,1 49758U 21115AL  24110.86392989  .00003632  00000-0  24618-3 0  9993,2 49758  53.2196 351.3822 0001488  98.2187 261.8974 15.08842261132797,6917.873,95.437,540.768,538.709,0.0
49758.0,STARLINK-3194,PAYLOAD,2024-04-19 22:19:26,15.08844336,0.000191,53.2194,351.0853,71.9888,288.1312,0.0002634,3.907e-05,0.0,0 STARLINK-3194,1 49758U 21115AL  24110.93017039  .00003907  00000-0  26340-3 0  9990,2 49758  53.2194 351.0853 0001910  71.9888 288.1312 15.08844336131693,6917.867,95.437,541.053,538.411,0.0
49758.0,STARLINK-3194,PAYLOAD,2024-04-20 01:30:11,15.0886254,0.0001507,53.2194,350.4872,104.4633,255.6527,0.0003942,5.995e-05,0.0,0 STARLINK-3194,1 49758U 21115AL  24111.06263236  .00005995  00000-0  39420-3 0  9999,2 49758  53.2194 350.4872 0001507 104.4633 255.6527 15.08862540132829,6917.811,95.436,540.719,538.634,0.0
49758.0,STARLINK-3194,PAYLOAD,2024-04-20 20:34:52,15.08840395,0.000169,53.2202,346.9182,93.8796,266.239,-0.00036012,-6.015e-05,0.0,0 STARLINK-3194,1 49758U 21115AL  24111.85754713 -.00006015  00000-0 -36012-3 0  9991,2 49758  53.2202 346.9182 0001690  93.8796 266.2390 15.08840395132940,6917.879,95.438,540.913,538.575,0.0
49758.0,STARLINK-3194,PAYLOAD,2024-04-21 01:21:01,15.08840864,0.0001626,53.2204,346.0216,96.4564,263.6613,-0.00034212,-5.729e-05,0.0,0 STARLINK-3194,1 49758U 21115AL  24112.05626530 -.00005729  00000-0 -34212-3 0  9990,2 49758  53.2204 346.0216 0001626  96.4564 263.6613 15.08840864131862,6917.878,95.438,540.868,538.618,0.0
49758.0,STARLINK-3194,PAYLOAD,2024-04-21 20:25:38,15.0883772,0.0001459,53.2189,342.4591,81.1636,278.9521,-0.00013424,-2.424e-05,0.0,0 STARLINK-3194,1 49758U 21115AL  24112.85113999 -.00002424  00000-0 -13424-3 0  9999,2 49758  53.2189 342.4591 0001459  81.1636 278.9521 15.08837720133096,6917.887,95.438,540.762,538.743,0.0
49758.0,STARLINK-3194,PAYLOAD,2024-04-21 22:01:01,15.08849584,0.0001504,53.2188,342.1582,106.6297,253.486,7.927e-05,9.74e-06,0.0,0 STARLINK-3194,1 49758U 21115AL  24112.91737348  .00000974  00000-0  79270-4 0  9994,2 49758  53.2188 342.1582 0001504 106.6297 253.4860 15.08849584131991,6917.851,95.437,540.757,538.676,0.0
49758.0,STARLINK-3194,PAYLOAD,2024-04-22 01:11:47,15.08849849,0.0001592,53.2189,341.5628,108.3614,251.7551,0.00011675,1.571e-05,0.0,0 STARLINK-3194,1 49758U 21115AL  24113.04985310  .00001571  00000-0  11675-3 0  9991,2 49758  53.2189 341.5628 0001592 108.3614 251.7551 15.08849849133124,6917.85,95.437,540.817,538.614,0.0
49758.0,STARLINK-3194,PAYLOAD,2024-04-22 20:16:26,15.08834601,0.0001484,53.2187,338.0003,110.7695,249.3456,0.00020245,2.935e-05,0.0,0 STARLINK-3194,1 49758U 21115AL  24113.84474720  .00002935  00000-0  20245-3 0  9995,2 49758  53.2187 338.0003 0001484 110.7695 249.3456 15.08834601133246,6917.897,95.438,540.789,538.735,0.0
49758.0,STARLINK-3194,PAYLOAD,2024-04-22 21:51:49,15.08840678,0.0001209,53.2181,337.7008,109.8205,250.2917,0.00028361,4.229e-05,0.0,0 STARLINK-3194,1 49758U 21115AL  24113.91098754  .00004229  00000-0  28361-3 0  9997,2 49758  53.2181 337.7008 0001209 109.8205 250.2917 15.08840678132144,6917.878,95.438,540.58,538.907,0.0
49758.0,STARLINK-3194,PAYLOAD,2024-04-23 20:07:13,15.08837434,0.0001488,53.2199,333.5442,101.4397,258.6762,4.6796e-05,4.57e-06,0.0,0 STARLINK-3194,1 49758U 21115AL  24114.83835519  .00000457  00000-0  46796-4 0  9999,2 49758  53.2199 333.5442 0001488 101.4397 258.6762 15.08837434132289,6917.888,95.438,540.783,538.724,0.0
49758.0,STARLINK-3194,PAYLOAD,2024-04-23 23:17:59,15.08847182,0.0001415,53.2183,332.9437,93.4453,266.6701,9.3931e-05,1.208e-05,0.0,0 STARLINK-3194,1 49758U 21115AL  24114.97082721  .00001208  00000-0  93931-4 0  9991,2 49758  53.2183 332.9437 0001415  93.4453 266.6701 15.08847182133411,6917.858,95.437,540.702,538.745,0.0
49758.0,STARLINK-3194,PAYLOAD,2024-04-24 19:58:01,15.08835485,0.0001459,53.2195,329.0842,97.8519,262.2639,4.8832e-05,4.89e-06,0.0,0 STARLINK-3194,1 49758U 21115AL  24115.83196060  .00000489  00000-0  48832-4 0  9999,2 49758  53.2195 329.0842 0001459  97.8519 262.2639 15.08835485133549,6917.894,95.438,540.769,538.75,0.0
49758.0,STARLINK-3194,PAYLOAD,2024-04-24 21:33:24,15.08838508,0.000145,53.2199,328.7871,82.3648,277.7509,7.6923e-05,9.36e-06,0.0,0 STARLINK-3194,1 49758U 21115AL  24115.89819898  .00000936  00000-0  76923-4 0  9995,2 49758  53.2199 328.7871 0001450  82.3648 277.7509 15.08838508132448,6917.885,95.438,540.753,538.747,0.0
49758.0,STARLINK-3194,PAYLOAD,2024-04-24 23:08:47,15.08842363,0.0001408,53.22,328.4881,100.5779,259.5372,9.2671e-05,1.187e-05,0.0,0 STARLINK-3194,1 49758U 21115AL  24115.96443482  .00001187  00000-0  92671-4 0  9992,2 49758  53.2200 328.4881 0001408 100.5779 259.5372 15.08842363133564,6917.873,95.437,540.712,538.764,0.0
